[
    {
        "Altitude(m)": 607886.7220701444,
        "Argument of Periapsis(deg)": 0.0,
        "Eccentricity": 0.0,
        "Inclination(deg)": 60.0,
        "Latitude(deg)": 40.99852659720873,
        "Longitude(deg)": 34.97286587062068,
        "Mean Anomaly(deg)": 49.09089999999999,
        "RAAN(deg)": 105.0,
        "Satellite Name": "Test1 465",
        "Satellite Number": 465,
        "Semi-Major Axis(m)": 6980739.136638005,
        "Time(s)": 0
    },
    {
        "Altitude(m)": 607987.6366061937,
        "Argument of Periapsis(deg)": 0.00010418945913296404,
        "Eccentricity": 0.0,
        "Inclination(deg)": 60.0,
        "Latitude(deg)": 41.46361782082265,
        "Longitude(deg)": 35.47709251028372,
        "Mean Anomaly(deg)": 49.71100614546181,
        "RAAN(deg)": 104.99957995086028,
        "Satellite Name": "Test1 465",
        "Satellite Number": 465,
        "Semi-Major Axis(m)": 6980739.136638005,
        "Time(s)": 10
    }
]